LEMUR-2-ALISIA          
1 62706U 25009DB  26159.47918634  .00007259  00000+0  54888-3 0  9990
2 62706  97.6965 241.7084 0000972 189.4055 170.7152 15.02645827 98854
LEMUR-2-ROUNDTRIPPER    
1 62711U 25009DG  26159.50967343  .00009310  00000+0  68409-3 0  9995
2 62711  97.7245 242.2016 0004361 159.7952 200.3447 15.03646465 76320
LEMUR-2-MYNAMEISJEFF    
1 62712U 25009DH  26159.50814613  .00009004  00000+0  66158-3 0  9996
2 62712  97.7292 242.5758 0002636 187.4133 172.7054 15.03661405 76328
LEMUR-2-LEIA-PHILIP     
1 63246U 25052AN  26159.18156007  .00002208  00000+0  19544-3 0  9993
2 63246  97.6847  51.2835 0002054 249.4491 110.6511 14.97291118 67328
LEMUR-2-LIA-MARTIN      
1 63248U 25052AQ  26159.52343997  .00005617  00000+0  48380-3 0  9996
2 63248  97.6909  52.0814 0002347 171.3588 188.7675 14.97733641 67385
LEMUR-2-DELOITTE-1      
1 63259U 25052BB  26159.49866273  .00004056  00000+0  35254-3 0  9993
2 63259  97.6920  52.3863 0002479 114.7528 245.3952 14.97537849 67399
LEMUR-2-EMERSONROSE     
1 63261U 25052BD  26159.21540691  .00003172  00000+0  26647-3 0  9993
2 63261  97.6905  52.6491 0002472  71.0664 289.0826 14.99020138 67399
LEMUR-2-MARACHE-FRAN    
1 63262U 25052BE  26158.66309041  .00007107  00000+0  57581-3 0  9997
2 63262  97.6945  52.3995 0006230  53.6661 306.5137 15.00001972 67331
LEMUR-2-THEFALCONER     
1 63264U 25052BG  26159.52384770  .00004617  00000+0  40269-3 0  9995
2 63264  97.6878  52.0404 0003565  59.1931 300.9641 14.97334167 67393
LEMUR-2-UNTITLED-SC     
1 63351U 25061A   26159.42746801  .00003501  00000+0  19918-3 0  9996
2 63351  97.5631 134.8535 0017139 298.0705  61.8793 15.13411015 66268
LEMUR-2-ESPERANZA       
1 63352U 25061B   26159.20680409  .00003884  00000+0  21998-3 0  9999
2 63352  97.5640 134.7261 0016759 298.3446  61.6095 15.13504244 66233
LEMUR-2-KREMPEL-BRO2    
1 63353U 25061C   26159.43464444  .00003480  00000+0  19509-3 0  9991
2 63353  97.5685 135.4743 0017536 288.9993  70.9338 15.13939313 66289
LEMUR-2-THERMORAPTOR    
1 63354U 25061D   26159.48325985  .00004221  00000+0  23531-3 0  9997
2 63354  97.5690 135.5966 0017262 287.6914  72.2433 15.14018473 66297
LEMUR-2-NEUROSPICY      
1 63355U 25061E   26159.45559176  .00003616  00000+0  20164-3 0  9992
2 63355  97.5617 135.2023 0015060 292.2107  67.7526 15.14133472 66297
LEMUR-2-TILLINFINITY    
1 63356U 25061F   26158.89968035  .00004285  00000+0  23430-3 0  9990
2 63356  97.5604 134.9339 0016239 280.9054  79.0350 15.14716168 66238
LEMUR-2-KREMPEL-BRO1    
1 63357U 25061G   26159.40051367  .00003897  00000+0  21449-3 0  9996
2 63357  97.5606 135.3504 0016873 280.2657  79.6672 15.14525260 66308
LEMUR-2-LANGER2SPACE    
1 63358U 25061H   26159.49134727  .00004100  00000+0  22755-3 0  9997
2 63358  97.5609 135.2580 0014978 290.1028  69.8592 15.14222238 66302
LEMUR-2-BALTO           
1 63395U 25052BH  26159.51487068  .00005948  00000+0  48285-3 0  9997
2 63395  97.6881  53.2264 0006663  79.6341 280.5634 14.99993155 67466
LEMUR-2-KRISH           
1 64561U 25135AK  26159.31320271  .00004498  00000+0  40487-3 0  9990
2 64561  97.7724 274.2526 0001210 107.4283 252.7070 14.96121854 52592
LEMUR-2-HUBBLE-4        
1 64565U 25135AP  26159.22373483  .00001376  00000+0  13726-3 0  9995
2 64565  97.7689 273.2393 0001634 357.8755   2.2457 14.93172589 52531
LEMUR-2-SEJONG-2        
1 64586U 25135BL  26159.54671867  .00004699  00000+0  41720-3 0  9996
2 64586  97.7684 274.6281 0004537  18.0169 342.1213 14.96633514 52652
LEMUR-2-HUBBLE-5        
1 64840U 25135BT  26159.31737370  .00001729  00000+0  16709-3 0  9996
2 64840  97.7709 273.9510 0005796  23.1887 336.9593 14.94107856 52589
LEMUR-2-KARENDARRELL    
1 64841U 25135BU  26159.31297265  .00006608  00000+0  53582-3 0  9992
2 64841  97.7668 275.5377 0009124 236.7119 123.3231 14.99981807 52681
LEMUR-2-LUCILLE-ROSE    
1 65403U 25135BV  26159.22029903  .00006280  00000+0  50859-3 0  9999
2 65403  97.7770 275.4534 0010679 318.0498  41.9906 15.00039695 47292
LEMUR-2-AFFIE-WAUWIE    
1 66295U 25248C   26158.30799735  .00013749  00000+0  52119-3 0  9998
2 66295  45.3866 168.5000 0008835  20.2835 339.8404 15.26866519 33080
LEMUR-2-DEANANDMAEVE    
1 66678U 25276N   26159.16217609  .00006038  00000+0  28646-3 0  9995
2 66678  97.4208 232.7884 0006515  43.4087 316.7660 15.19620066 29042
LEMUR-2-STAS-GORBUK     
1 66686U 25276W   26159.43808574  .00005258  00000+0  25233-3 0  9993
2 66686  97.4244 233.1153 0005988  43.0012 317.1689 15.19287165 29081
LEMUR-2-TEODOR          
1 66768U 25276DG  26159.16828589  .00005354  00000+0  24488-3 0  9990
2 66768  97.4147 233.0751 0001831 123.5597 236.5814 15.20951389 29073
LEMUR-2-LAILA           
1 66776U 25276DQ  26159.47241293  .00005711  00000+0  25930-3 0  9994
2 66776  97.4172 233.4896 0001642 146.7363 213.3976 15.21175807 29124
LEMUR-2-CELIJO-SB-PK    
1 66781U 25276DW  26159.43074350  .00005469  00000+0  44551-3 0  9994
2 66781  97.5277 230.4949 0008833 153.3579 206.8101 14.99867942 21317
