OBJECT_NAME,OBJECT_ID,EPOCH,MEAN_MOTION,ECCENTRICITY,INCLINATION,RA_OF_ASC_NODE,ARG_OF_PERICENTER,MEAN_ANOMALY,EPHEMERIS_TYPE,CLASSIFICATION_TYPE,NORAD_CAT_ID,ELEMENT_SET_NO,REV_AT_EPOCH,BSTAR,MEAN_MOTION_DOT,MEAN_MOTION_DDOT
LEMUR-2-ALISIA,2025-009DB,2026-06-08T11:30:01.699776,15.02645827,.0000972,97.6965,241.7084,189.4055,170.7152,0,U,62706,999,9885,.54888E-3,.7259E-4,0
LEMUR-2-ROUNDTRIPPER,2025-009DG,2026-06-08T12:13:55.784352,15.03646465,.0004361,97.7245,242.2016,159.7952,200.3447,0,U,62711,999,7632,.68409E-3,.931E-4,0
LEMUR-2-MYNAMEISJEFF,2025-009DH,2026-06-08T12:11:43.825632,15.03661405,.0002636,97.7292,242.5758,187.4133,172.7054,0,U,62712,999,7632,.66158E-3,.9004E-4,0
LEMUR-2-LEIA-PHILIP,2025-052AN,2026-06-08T04:21:26.790048,14.97291118,.0002054,97.6847,51.2835,249.4491,110.6511,0,U,63246,999,6732,.19544E-3,.2208E-4,0
LEMUR-2-LIA-MARTIN,2025-052AQ,2026-06-08T12:33:45.213408,14.97733641,.0002347,97.6909,52.0814,171.3588,188.7675,0,U,63248,999,6738,.4838E-3,.5617E-4,0
LEMUR-2-DELOITTE-1,2025-052BB,2026-06-08T11:58:04.459872,14.97537849,.0002479,97.6920,52.3863,114.7528,245.3952,0,U,63259,999,6739,.35254E-3,.4056E-4,0
LEMUR-2-EMERSONROSE,2025-052BD,2026-06-08T05:10:11.157024,14.99020138,.0002472,97.6905,52.6491,71.0664,289.0826,0,U,63261,999,6739,.26647E-3,.3172E-4,0
LEMUR-2-MARACHE-FRAN,2025-052BE,2026-06-07T15:54:51.011424,15.00001972,.00062305,97.6945,52.3995,53.6661,306.5137,0,U,63262,999,6733,.57580695E-3,.7107E-4,0
LEMUR-2-THEFALCONER,2025-052BG,2026-06-08T12:34:20.441280,14.97334167,.0003565,97.6878,52.0404,59.1931,300.9641,0,U,63264,999,6739,.40269E-3,.4617E-4,0
LEMUR-2-UNTITLED-SC,2025-061A,2026-06-08T10:15:33.236064,15.13411015,.0017139,97.5631,134.8535,298.0705,61.8793,0,U,63351,999,6626,.19918E-3,.3501E-4,0
LEMUR-2-ESPERANZA,2025-061B,2026-06-08T04:57:47.873376,15.13504244,.0016759,97.5640,134.7261,298.3446,61.6095,0,U,63352,999,6623,.21998E-3,.3884E-4,0
LEMUR-2-KREMPEL-BRO2,2025-061C,2026-06-08T10:25:53.279616,15.13939313,.0017536,97.5685,135.4743,288.9993,70.9338,0,U,63353,999,6628,.19509E-3,.348E-4,0
LEMUR-2-THERMORAPTOR,2025-061D,2026-06-08T11:35:53.651040,15.14018473,.0017262,97.5690,135.5966,287.6914,72.2433,0,U,63354,999,6629,.23531E-3,.4221E-4,0
LEMUR-2-NEUROSPICY,2025-061E,2026-06-08T10:56:03.128064,15.14133472,.001506,97.5617,135.2023,292.2107,67.7526,0,U,63355,999,6629,.20164E-3,.3616E-4,0
LEMUR-2-TILLINFINITY,2025-061F,2026-06-07T21:35:32.382240,15.14716168,.00162393,97.5604,134.9339,280.9054,79.0350,0,U,63356,999,6623,.23430333E-3,.4285E-4,0
LEMUR-2-KREMPEL-BRO1,2025-061G,2026-06-08T09:36:44.381088,15.14525260,.0016873,97.5606,135.3504,280.2657,79.6672,0,U,63357,999,6630,.21449E-3,.3897E-4,0
LEMUR-2-LANGER2SPACE,2025-061H,2026-06-08T11:47:32.404128,15.14222238,.0014978,97.5609,135.2580,290.1028,69.8592,0,U,63358,999,6630,.22755E-3,.41E-4,0
LEMUR-2-BALTO,2025-052BH,2026-06-08T12:21:24.826752,14.99993155,.0006663,97.6881,53.2264,79.6341,280.5634,0,U,63395,999,6746,.48285E-3,.5948E-4,0
LEMUR-2-KRISH,2025-135AK,2026-06-08T07:31:00.714144,14.96121854,.000121,97.7724,274.2526,107.4283,252.7070,0,U,64561,999,5259,.40487E-3,.4498E-4,0
LEMUR-2-HUBBLE-4,2025-135AP,2026-06-08T05:22:10.689312,14.93172589,.0001634,97.7689,273.2393,357.8755,2.2457,0,U,64565,999,5253,.13726E-3,.1376E-4,0
LEMUR-2-SEJONG-2,2025-135BL,2026-06-08T13:07:16.493088,14.96633514,.0004537,97.7684,274.6281,18.0169,342.1213,0,U,64586,999,5265,.4172E-3,.4699E-4,0
LEMUR-2-HUBBLE-5,2025-135BT,2026-06-08T07:37:01.087680,14.94107856,.0005796,97.7709,273.9510,23.1887,336.9593,0,U,64840,999,5258,.16709E-3,.1729E-4,0
LEMUR-2-KARENDARRELL,2025-135BU,2026-06-08T07:30:40.836960,14.99981807,.0009124,97.7668,275.5377,236.7119,123.3231,0,U,64841,999,5268,.53582E-3,.6608E-4,0
LEMUR-2-LUCILLE-ROSE,2025-135BV,2026-06-08T05:17:13.836192,15.00039695,.0010679,97.7770,275.4534,318.0498,41.9906,0,U,65403,999,4729,.50859E-3,.628E-4,0
LEMUR-2-AFFIE-WAUWIE,2025-248C,2026-06-07T07:23:30.971040,15.26866519,.0008835,45.3866,168.5000,20.2835,339.8404,0,U,66295,999,3308,.52119E-3,.13749E-3,0
LEMUR-2-DEANANDMAEVE,2025-276N,2026-06-08T03:53:32.014176,15.19620066,.00065158,97.4208,232.7884,43.4087,316.7660,0,U,66678,999,2904,.28645899E-3,.6038E-4,0
LEMUR-2-STAS-GORBUK,2025-276W,2026-06-08T10:30:50.607936,15.19287165,.0005988,97.4244,233.1153,43.0012,317.1689,0,U,66686,999,2908,.25233E-3,.5258E-4,0
LEMUR-2-TEODOR,2025-276DG,2026-06-08T04:02:19.900896,15.20951389,.0001831,97.4147,233.0751,123.5597,236.5814,0,U,66768,999,2907,.24488E-3,.5354E-4,0
LEMUR-2-LAILA,2025-276DQ,2026-06-08T11:20:16.477152,15.21175807,.0001642,97.4172,233.4896,146.7363,213.3976,0,U,66776,999,2912,.2593E-3,.5711E-4,0
LEMUR-2-CELIJO-SB-PK,2025-276DW,2026-06-08T10:20:16.238400,14.99867942,.0008833,97.5277,230.4949,153.3579,206.8101,0,U,66781,999,2131,.44551E-3,.5469E-4,0
